[
    {
        "Altitude(m)": 607886.7239156974,
        "Argument of Periapsis(deg)": 0.0,
        "Eccentricity": 0.0,
        "Inclination(deg)": 60.0,
        "Latitude(deg)": 40.99853159614318,
        "Longitude(deg)": 154.9730238992737,
        "Mean Anomaly(deg)": 49.09089999999999,
        "RAAN(deg)": 225.0,
        "Satellite Name": "Test1 993",
        "Satellite Number": 993,
        "Semi-Major Axis(m)": 6980739.136638005,
        "Time(s)": 0
    },
    {
        "Altitude(m)": 607987.6378595829,
        "Argument of Periapsis(deg)": 0.00010418945913296404,
        "Eccentricity": 0.0,
        "Inclination(deg)": 60.0,
        "Latitude(deg)": 41.46362120809365,
        "Longitude(deg)": 155.47725318058045,
        "Mean Anomaly(deg)": 49.711006145461845,
        "RAAN(deg)": 224.99957995086024,
        "Satellite Name": "Test1 993",
        "Satellite Number": 993,
        "Semi-Major Axis(m)": 6980739.136638005,
        "Time(s)": 10
    },
    {
        "Altitude(m)": 608088.6014074188,
        "Argument of Periapsis(deg)": 0.0002083789182659281,
        "Eccentricity": 0.0,
        "Inclination(deg)": 60.0,
        "Latitude(deg)": 41.92604663255808,
        "Longitude(deg)": 155.9893055061769,
        "Mean Anomaly(deg)": 50.331112290923684,
        "RAAN(deg)": 224.9991599017205,
        "Satellite Name": "Test1 993",
        "Satellite Number": 993,
        "Semi-Major Axis(m)": 6980739.136638005,
        "Time(s)": 20
    },
    {
        "Altitude(m)": 608189.5513379839,
        "Argument of Periapsis(deg)": 0.00031256837739889213,
        "Eccentricity": 0.0,
        "Inclination(deg)": 60.0,
        "Latitude(deg)": 42.38572711950169,
        "Longitude(deg)": 156.50937691770017,
        "Mean Anomaly(deg)": 50.951218436385474,
        "RAAN(deg)": 224.99873985258074,
        "Satellite Name": "Test1 993",
        "Satellite Number": 993,
        "Semi-Major Axis(m)": 6980739.136638005,
        "Time(s)": 30
    },
    {
        "Altitude(m)": 608290.4246567902,
        "Argument of Periapsis(deg)": 0.0004167578365318562,
        "Eccentricity": 0.0,
        "Inclination(deg)": 60.0,
        "Latitude(deg)": 42.84257937183441,
        "Longitude(deg)": 157.0376673234968,
        "Mean Anomaly(deg)": 51.5713245818473,
        "RAAN(deg)": 224.99831980344103,
        "Satellite Name": "Test1 993",
        "Satellite Number": 993,
        "Semi-Major Axis(m)": 6980739.136638005,
        "Time(s)": 40
    },
    {
        "Altitude(m)": 608391.1586273322,
        "Argument of Periapsis(deg)": 0.0005209472956648203,
        "Eccentricity": 0.0,
        "Inclination(deg)": 60.0,
        "Latitude(deg)": 43.29651746602567,
        "Longitude(deg)": 157.57437940359904,
        "Mean Anomaly(deg)": 52.191430727309154,
        "RAAN(deg)": 224.99789975430127,
        "Satellite Name": "Test1 993",
        "Satellite Number": 993,
        "Semi-Major Axis(m)": 6980739.136638005,
        "Time(s)": 50
    },
    {
        "Altitude(m)": 608491.6908021739,
        "Argument of Periapsis(deg)": 0.0006251367547977843,
        "Eccentricity": 0.0,
        "Inclination(deg)": 60.0,
        "Latitude(deg)": 43.74745277200759,
        "Longitude(deg)": 158.1197190078089,
        "Mean Anomaly(deg)": 52.81153687277099,
        "RAAN(deg)": 224.99747970516154,
        "Satellite Name": "Test1 993",
        "Satellite Number": 993,
        "Semi-Major Axis(m)": 6980739.136638005,
        "Time(s)": 60
    },
    {
        "Altitude(m)": 608591.9590538177,
        "Argument of Periapsis(deg)": 0.0007293262139307483,
        "Eccentricity": 0.0,
        "Inclination(deg)": 60.0,
        "Latitude(deg)": 44.19529387260149,
        "Longitude(deg)": 158.67389553212678,
        "Mean Anomaly(deg)": 53.43164301823279,
        "RAAN(deg)": 224.99705965602178,
        "Satellite Name": "Test1 993",
        "Satellite Number": 993,
        "Semi-Major Axis(m)": 6980739.136638005,
        "Time(s)": 70
    },
    {
        "Altitude(m)": 608691.9016054167,
        "Argument of Periapsis(deg)": 0.0008335156730637124,
        "Eccentricity": 0.0,
        "Inclination(deg)": 60.0,
        "Latitude(deg)": 44.63994648273372,
        "Longitude(deg)": 159.2371207586379,
        "Mean Anomaly(deg)": 54.05174916369461,
        "RAAN(deg)": 224.99663960688207,
        "Satellite Name": "Test1 993",
        "Satellite Number": 993,
        "Semi-Major Axis(m)": 6980739.136638005,
        "Time(s)": 80
    },
    {
        "Altitude(m)": 608791.4570612226,
        "Argument of Periapsis(deg)": 0.0009377051321966765,
        "Eccentricity": 0.0,
        "Inclination(deg)": 60.0,
        "Latitude(deg)": 45.081313368738805,
        "Longitude(deg)": 159.8096091824709,
        "Mean Anomaly(deg)": 54.67185530915647,
        "RAAN(deg)": 224.9962195577423,
        "Satellite Name": "Test1 993",
        "Satellite Number": 993,
        "Semi-Major Axis(m)": 6980739.136638005,
        "Time(s)": 90
    },
    {
        "Altitude(m)": 608890.5644368306,
        "Argument of Periapsis(deg)": 0.0010418945913296407,
        "Eccentricity": 0.0,
        "Inclination(deg)": 60.0,
        "Latitude(deg)": 45.519294268093766,
        "Longitude(deg)": 160.39157831069568,
        "Mean Anomaly(deg)": 55.2919614546183,
        "RAAN(deg)": 224.99579950860257,
        "Satellite Name": "Test1 993",
        "Satellite Number": 993,
        "Semi-Major Axis(m)": 6980739.136638005,
        "Time(s)": 100
    },
    {
        "Altitude(m)": 608989.1631891706,
        "Argument of Periapsis(deg)": 0.0011460840504626045,
        "Eccentricity": 0.0,
        "Inclination(deg)": 60.0,
        "Latitude(deg)": 45.953785809972125,
        "Longitude(deg)": 160.98324741790574,
        "Mean Anomaly(deg)": 55.91206760008015,
        "RAAN(deg)": 224.9953794594628,
        "Satellite Name": "Test1 993",
        "Satellite Number": 993,
        "Semi-Major Axis(m)": 6980739.136638005,
        "Time(s)": 110
    },
    {
        "Altitude(m)": 609087.1932462469,
        "Argument of Periapsis(deg)": 0.0012502735095955685,
        "Eccentricity": 0.0,
        "Inclination(deg)": 60.0,
        "Latitude(deg)": 46.38468143704484,
        "Longitude(deg)": 161.58483778173462,
        "Mean Anomaly(deg)": 56.53217374554198,
        "RAAN(deg)": 224.9949594103231,
        "Satellite Name": "Test1 993",
        "Satellite Number": 993,
        "Semi-Major Axis(m)": 6980739.136638005,
        "Time(s)": 120
    },
    {
        "Altitude(m)": 609184.5950365845,
        "Argument of Periapsis(deg)": 0.0013544629687285324,
        "Eccentricity": 0.0,
        "Inclination(deg)": 60.0,
        "Latitude(deg)": 46.811871329014394,
        "Longitude(deg)": 162.19657288282127,
        "Mean Anomaly(deg)": 57.15227989100378,
        "RAAN(deg)": 224.99453936118334,
        "Satellite Name": "Test1 993",
        "Satellite Number": 993,
        "Semi-Major Axis(m)": 6980739.136638005,
        "Time(s)": 130
    },
    {
        "Altitude(m)": 609281.3095184243,
        "Argument of Periapsis(deg)": 0.0014586524278614966,
        "Eccentricity": 0.0,
        "Inclination(deg)": 60.0,
        "Latitude(deg)": 47.23524232842245,
        "Longitude(deg)": 162.8186770536343,
        "Mean Anomaly(deg)": 57.77238603646561,
        "RAAN(deg)": 224.9941193120436,
        "Satellite Name": "Test1 993",
        "Satellite Number": 993,
        "Semi-Major Axis(m)": 6980739.136638005,
        "Time(s)": 140
    },
    {
        "Altitude(m)": 609377.2782085856,
        "Argument of Periapsis(deg)": 0.0015628418869944607,
        "Eccentricity": 0.0,
        "Inclination(deg)": 60.0,
        "Latitude(deg)": 47.65467786932137,
        "Longitude(deg)": 163.45137559909455,
        "Mean Anomaly(deg)": 58.39249218192746,
        "RAAN(deg)": 224.99369926290385,
        "Satellite Name": "Test1 993",
        "Satellite Number": 993,
        "Semi-Major Axis(m)": 6980739.136638005,
        "Time(s)": 150
    },
    {
        "Altitude(m)": 609472.4432110459,
        "Argument of Periapsis(deg)": 0.0016670313461274247,
        "Eccentricity": 0.0,
        "Inclination(deg)": 60.0,
        "Latitude(deg)": 48.07005790947089,
        "Longitude(deg)": 164.09489487323688,
        "Mean Anomaly(deg)": 59.01259832738929,
        "RAAN(deg)": 224.99327921376414,
        "Satellite Name": "Test1 993",
        "Satellite Number": 993,
        "Semi-Major Axis(m)": 6980739.136638005,
        "Time(s)": 160
    },
    {
        "Altitude(m)": 609566.7472451745,
        "Argument of Periapsis(deg)": 0.0017712208052603888,
        "Eccentricity": 0.0,
        "Inclination(deg)": 60.0,
        "Latitude(deg)": 48.48125886678486,
        "Longitude(deg)": 164.74946079609035,
        "Mean Anomaly(deg)": 59.63270447285109,
        "RAAN(deg)": 224.9928591646244,
        "Satellite Name": "Test1 993",
        "Satellite Number": 993,
        "Semi-Major Axis(m)": 6980739.136638005,
        "Time(s)": 170
    },
    {
        "Altitude(m)": 609660.1336736511,
        "Argument of Periapsis(deg)": 0.001875410264393353,
        "Eccentricity": 0.0,
        "Inclination(deg)": 60.0,
        "Latitude(deg)": 48.88815356081508,
        "Longitude(deg)": 165.41529883354548,
        "Mean Anomaly(deg)": 60.25281061831292,
        "RAAN(deg)": 224.99243911548464,
        "Satellite Name": "Test1 993",
        "Satellite Number": 993,
        "Semi-Major Axis(m)": 6980739.136638005,
        "Time(s)": 180
    },
    {
        "Altitude(m)": 609752.5465300155,
        "Argument of Periapsis(deg)": 0.0019795997235263173,
        "Eccentricity": 0.0,
        "Inclination(deg)": 60.0,
        "Latitude(deg)": 49.290611160138496,
        "Longitude(deg)": 166.09263392434715,
        "Mean Anomaly(deg)": 60.87291676377477,
        "RAAN(deg)": 224.99201906634488,
        "Satellite Name": "Test1 993",
        "Satellite Number": 993,
        "Semi-Major Axis(m)": 6980739.136638005,
        "Time(s)": 190
    }
]